[
    {
        "Altitude(m)": 607895.8501973847,
        "Argument of Periapsis(deg)": 0.0,
        "Eccentricity": 0.0,
        "Inclination(deg)": 60.0,
        "Latitude(deg)": 40.998428469703,
        "Longitude(deg)": 135.08870630768712,
        "Mean Anomaly(deg)": 130.9091,
        "RAAN(deg)": 85.00000000000001,
        "Satellite Name": "Test1 382",
        "Satellite Number": 382,
        "Semi-Major Axis(m)": 6980739.136638005,
        "Time(s)": 0
    },
    {
        "Altitude(m)": 607795.1627344673,
        "Argument of Periapsis(deg)": 0.00010418945913296404,
        "Eccentricity": 0.0,
        "Inclination(deg)": 60.0,
        "Latitude(deg)": 40.530752124235775,
        "Longitude(deg)": 135.58529980045353,
        "Mean Anomaly(deg)": 131.52920614546187,
        "RAAN(deg)": 84.99957995086027,
        "Satellite Name": "Test1 382",
        "Satellite Number": 382,
        "Semi-Major Axis(m)": 6980739.136638005,
        "Time(s)": 10
    }
]